{"fetched_at":"2026-07-17T17:37:56.755Z","source":"https://celestrak.org/NORAD/elements/gp.php?GROUP=qianfan&FORMAT=JSON","constellation":"qianfan","records":[{"OBJECT_NAME":"QIANFAN-97","OBJECT_ID":"2025-233G","EPOCH":"2026-07-17T00:01:25.607712","CLASSIFICATION_TYPE":"U","MEAN_MOTION":13.51015819,"ECCENTRICITY":0.00020512,"INCLINATION":88.9987,"RA_OF_ASC_NODE":40.1727,"ARG_OF_PERICENTER":93.9768,"MEAN_ANOMALY":266.1618,"EPHEMERIS_TYPE":0,"NORAD_CAT_ID":66039,"ELEMENT_SET_NO":999,"REV_AT_EPOCH":3721,"BSTAR":0.000048549056,"MEAN_MOTION_DOT":4.3e-7,"MEAN_MOTION_DDOT":0},{"OBJECT_NAME":"QIANFAN-98","OBJECT_ID":"2025-233H","EPOCH":"2026-07-17T00:13:14.653632","CLASSIFICATION_TYPE":"U","MEAN_MOTION":13.51015646,"ECCENTRICITY":0.00024226,"INCLINATION":88.9975,"RA_OF_ASC_NODE":39.8995,"ARG_OF_PERICENTER":82.4887,"MEAN_ANOMALY":277.6539,"EPHEMERIS_TYPE":0,"NORAD_CAT_ID":66040,"ELEMENT_SET_NO":999,"REV_AT_EPOCH":3735,"BSTAR":0.000030797069,"MEAN_MOTION_DOT":3.2e-7,"MEAN_MOTION_DDOT":0},{"OBJECT_NAME":"QIANFAN-99","OBJECT_ID":"2025-233J","EPOCH":"2026-07-17T00:19:08.982624","CLASSIFICATION_TYPE":"U","MEAN_MOTION":13.51015725,"ECCENTRICITY":0.00023567,"INCLINATION":88.9987,"RA_OF_ASC_NODE":40.1756,"ARG_OF_PERICENTER":87.1088,"MEAN_ANOMALY":273.0333,"EPHEMERIS_TYPE":0,"NORAD_CAT_ID":66041,"ELEMENT_SET_NO":999,"REV_AT_EPOCH":3721,"BSTAR":0.000030976293,"MEAN_MOTION_DOT":3.2e-7,"MEAN_MOTION_DDOT":0},{"OBJECT_NAME":"QIANFAN-100","OBJECT_ID":"2025-233K","EPOCH":"2026-07-17T00:07:13.842912","CLASSIFICATION_TYPE":"U","MEAN_MOTION":13.51015722,"ECCENTRICITY":0.00020187,"INCLINATION":88.9997,"RA_OF_ASC_NODE":40.1067,"ARG_OF_PERICENTER":92.9326,"MEAN_ANOMALY":267.2056,"EPHEMERIS_TYPE":0,"NORAD_CAT_ID":66042,"ELEMENT_SET_NO":999,"REV_AT_EPOCH":3726,"BSTAR":0.000031460068,"MEAN_MOTION_DOT":3.2e-7,"MEAN_MOTION_DDOT":0},{"OBJECT_NAME":"QIANFAN-101","OBJECT_ID":"2025-233L","EPOCH":"2026-07-16T14:36:50.424480","CLASSIFICATION_TYPE":"U","MEAN_MOTION":14.26823003,"ECCENTRICITY":0.00170678,"INCLINATION":88.9983,"RA_OF_ASC_NODE":37.1884,"ARG_OF_PERICENTER":53.3183,"MEAN_ANOMALY":306.9576,"EPHEMERIS_TYPE":0,"NORAD_CAT_ID":66043,"ELEMENT_SET_NO":999,"REV_AT_EPOCH":3882,"BSTAR":0.000061795557,"MEAN_MOTION_DOT":0.00000165,"MEAN_MOTION_DDOT":0},{"OBJECT_NAME":"QIANFAN-102","OBJECT_ID":"2025-233M","EPOCH":"2026-07-17T00:36:57.832704","CLASSIFICATION_TYPE":"U","MEAN_MOTION":13.51015578,"ECCENTRICITY":0.00021331,"INCLINATION":88.9984,"RA_OF_ASC_NODE":40.0832,"ARG_OF_PERICENTER":88.5281,"MEAN_ANOMALY":271.6115,"EPHEMERIS_TYPE":0,"NORAD_CAT_ID":66044,"ELEMENT_SET_NO":999,"REV_AT_EPOCH":3726,"BSTAR":0.000035461617,"MEAN_MOTION_DOT":3.5e-7,"MEAN_MOTION_DDOT":0},{"OBJECT_NAME":"QIANFAN-103","OBJECT_ID":"2025-233N","EPOCH":"2026-07-17T00:42:52.699968","CLASSIFICATION_TYPE":"U","MEAN_MOTION":13.51016495,"ECCENTRICITY":0.00020318,"INCLINATION":88.9987,"RA_OF_ASC_NODE":40.1789,"ARG_OF_PERICENTER":94.5381,"MEAN_ANOMALY":265.6003,"EPHEMERIS_TYPE":0,"NORAD_CAT_ID":66045,"ELEMENT_SET_NO":999,"REV_AT_EPOCH":3721,"BSTAR":0.000036468254,"MEAN_MOTION_DOT":3.6e-7,"MEAN_MOTION_DDOT":0},{"OBJECT_NAME":"QIANFAN-104","OBJECT_ID":"2025-233P","EPOCH":"2026-07-17T00:49:00.135840","CLASSIFICATION_TYPE":"U","MEAN_MOTION":13.51021978,"ECCENTRICITY":0.00020954,"INCLINATION":88.9991,"RA_OF_ASC_NODE":40.082,"ARG_OF_PERICENTER":87.2179,"MEAN_ANOMALY":272.9212,"EPHEMERIS_TYPE":0,"NORAD_CAT_ID":66046,"ELEMENT_SET_NO":999,"REV_AT_EPOCH":3726,"BSTAR":0.000027347541,"MEAN_MOTION_DOT":3e-7,"MEAN_MOTION_DDOT":0},{"OBJECT_NAME":"QIANFAN-105","OBJECT_ID":"2025-233Q","EPOCH":"2026-07-17T06:20:49.930656","CLASSIFICATION_TYPE":"U","MEAN_MOTION":13.51021193,"ECCENTRICITY":0.00021829,"INCLINATION":89.0004,"RA_OF_ASC_NODE":39.9057,"ARG_OF_PERICENTER":93.4564,"MEAN_ANOMALY":266.6837,"EPHEMERIS_TYPE":0,"NORAD_CAT_ID":66047,"ELEMENT_SET_NO":999,"REV_AT_EPOCH":3740,"BSTAR":0.000042838514,"MEAN_MOTION_DOT":4e-7,"MEAN_MOTION_DDOT":0},{"OBJECT_NAME":"QIANFAN-106","OBJECT_ID":"2025-233R","EPOCH":"2026-07-17T06:14:44.492352","CLASSIFICATION_TYPE":"U","MEAN_MOTION":13.51015607,"ECCENTRICITY":0.00023653,"INCLINATION":88.9973,"RA_OF_ASC_NODE":40.1096,"ARG_OF_PERICENTER":84.442,"MEAN_ANOMALY":275.7,"EPHEMERIS_TYPE":0,"NORAD_CAT_ID":66048,"ELEMENT_SET_NO":999,"REV_AT_EPOCH":3724,"BSTAR":0.000043507691,"MEAN_MOTION_DOT":4e-7,"MEAN_MOTION_DDOT":0},{"OBJECT_NAME":"QIANFAN-107","OBJECT_ID":"2025-233S","EPOCH":"2026-07-16T23:19:58.092096","CLASSIFICATION_TYPE":"U","MEAN_MOTION":13.51015075,"ECCENTRICITY":0.00020215,"INCLINATION":88.9989,"RA_OF_ASC_NODE":40.1761,"ARG_OF_PERICENTER":93.1841,"MEAN_ANOMALY":266.9541,"EPHEMERIS_TYPE":0,"NORAD_CAT_ID":66049,"ELEMENT_SET_NO":999,"REV_AT_EPOCH":3721,"BSTAR":0.000040478137,"MEAN_MOTION_DOT":3.8e-7,"MEAN_MOTION_DDOT":0},{"OBJECT_NAME":"QIANFAN-108","OBJECT_ID":"2025-233T","EPOCH":"2026-07-17T06:32:28.000320","CLASSIFICATION_TYPE":"U","MEAN_MOTION":13.51016271,"ECCENTRICITY":0.00023126,"INCLINATION":88.9982,"RA_OF_ASC_NODE":40.1311,"ARG_OF_PERICENTER":84.3633,"MEAN_ANOMALY":275.7782,"EPHEMERIS_TYPE":0,"NORAD_CAT_ID":66050,"ELEMENT_SET_NO":999,"REV_AT_EPOCH":3725,"BSTAR":0.000025902654,"MEAN_MOTION_DOT":2.9e-7,"MEAN_MOTION_DDOT":0},{"OBJECT_NAME":"QIANFAN-109","OBJECT_ID":"2026-075A","EPOCH":"2026-07-17T06:52:49.037088","CLASSIFICATION_TYPE":"U","MEAN_MOTION":13.5102415,"ECCENTRICITY":0.00023323,"INCLINATION":88.9917,"RA_OF_ASC_NODE":317.939,"ARG_OF_PERICENTER":115.6751,"MEAN_ANOMALY":244.4641,"EPHEMERIS_TYPE":0,"NORAD_CAT_ID":68636,"ELEMENT_SET_NO":999,"REV_AT_EPOCH":1385,"BSTAR":0.000037869212,"MEAN_MOTION_DOT":3.6e-7,"MEAN_MOTION_DDOT":0},{"OBJECT_NAME":"QIANFAN-110","OBJECT_ID":"2026-075B","EPOCH":"2026-07-17T07:04:38.585856","CLASSIFICATION_TYPE":"U","MEAN_MOTION":13.51015898,"ECCENTRICITY":0.00020389,"INCLINATION":88.9917,"RA_OF_ASC_NODE":317.9596,"ARG_OF_PERICENTER":104.0667,"MEAN_ANOMALY":256.0711,"EPHEMERIS_TYPE":0,"NORAD_CAT_ID":68637,"ELEMENT_SET_NO":999,"REV_AT_EPOCH":1385,"BSTAR":0.00011897953,"MEAN_MOTION_DOT":8.9e-7,"MEAN_MOTION_DDOT":0},{"OBJECT_NAME":"QIANFAN-111","OBJECT_ID":"2026-075C","EPOCH":"2026-07-17T06:46:49.912032","CLASSIFICATION_TYPE":"U","MEAN_MOTION":13.51022791,"ECCENTRICITY":0.00020117,"INCLINATION":88.9916,"RA_OF_ASC_NODE":317.9203,"ARG_OF_PERICENTER":102.8233,"MEAN_ANOMALY":257.3143,"EPHEMERIS_TYPE":0,"NORAD_CAT_ID":68638,"ELEMENT_SET_NO":999,"REV_AT_EPOCH":1387,"BSTAR":0.00012103993,"MEAN_MOTION_DOT":9e-7,"MEAN_MOTION_DDOT":0},{"OBJECT_NAME":"QIANFAN-112","OBJECT_ID":"2026-075D","EPOCH":"2026-07-17T05:53:19.857408","CLASSIFICATION_TYPE":"U","MEAN_MOTION":13.51013298,"ECCENTRICITY":0.00021227,"INCLINATION":88.9915,"RA_OF_ASC_NODE":317.9328,"ARG_OF_PERICENTER":118.0314,"MEAN_ANOMALY":242.1052,"EPHEMERIS_TYPE":0,"NORAD_CAT_ID":68639,"ELEMENT_SET_NO":999,"REV_AT_EPOCH":1386,"BSTAR":0.00012903099,"MEAN_MOTION_DOT":9.5e-7,"MEAN_MOTION_DDOT":0}]}
