QIANFAN-97              
1 66039U 25233G   26198.00099083  .00000043  00000+0  48549-4 0  9994
2 66039  88.9987  40.1727 0002051  93.9768 266.1618 13.51015819 37213
QIANFAN-98              
1 66040U 25233H   26198.00919738  .00000032  00000+0  30797-4 0  9998
2 66040  88.9975  39.8995 0002422  82.4887 277.6539 13.51015646 37353
QIANFAN-99              
1 66041U 25233J   26198.01329841  .00000032  00000+0  30976-4 0  9999
2 66041  88.9987  40.1756 0002356  87.1088 273.0333 13.51015725 37213
QIANFAN-100             
1 66042U 25233K   26198.00502133  .00000032  00000+0  31460-4 0  9995
2 66042  88.9997  40.1067 0002018  92.9326 267.2056 13.51015722 37263
QIANFAN-101             
1 66043U 25233L   26197.60891695  .00000165  00000+0  61796-4 0  9997
2 66043  88.9983  37.1884 0017067  53.3183 306.9576 14.26823003 38827
QIANFAN-102             
1 66044U 25233M   26198.02566936  .00000035  00000+0  35462-4 0  9999
2 66044  88.9984  40.0832 0002133  88.5281 271.6115 13.51015578 37263
QIANFAN-103             
1 66045U 25233N   26198.02977662  .00000036  00000+0  36468-4 0  9990
2 66045  88.9987  40.1789 0002031  94.5381 265.6003 13.51016495 37217
QIANFAN-104             
1 66046U 25233P   26198.03402935  .00000030  00000+0  27348-4 0  9999
2 66046  88.9991  40.0820 0002095  87.2179 272.9212 13.51021978 37262
QIANFAN-105             
1 66047U 25233Q   26198.26446679  .00000040  00000+0  42839-4 0  9991
2 66047  89.0004  39.9057 0002182  93.4564 266.6837 13.51021193 37401
QIANFAN-106             
1 66048U 25233R   26198.26023718  .00000040  00000+0  43508-4 0  9991
2 66048  88.9973  40.1096 0002365  84.4420 275.7000 13.51015607 37244
QIANFAN-107             
1 66049U 25233S   26197.97220014  .00000038  00000+0  40478-4 0  9997
2 66049  88.9989  40.1761 0002021  93.1841 266.9541 13.51015075 37212
QIANFAN-108             
1 66050U 25233T   26198.27254630  .00000029  00000+0  25903-4 0  9990
2 66050  88.9982  40.1311 0002312  84.3633 275.7782 13.51016271 37250
QIANFAN-109             
1 68636U 26075A   26198.28667867  .00000036  00000+0  37869-4 0  9990
2 68636  88.9917 317.9390 0002332 115.6751 244.4641 13.51024150 13855
QIANFAN-110             
1 68637U 26075B   26198.29489104  .00000089  00000+0  11898-3 0  9999
2 68637  88.9917 317.9596 0002038 104.0667 256.0711 13.51015898 13851
QIANFAN-111             
1 68638U 26075C   26198.28252213  .00000090  00000+0  12104-3 0  9991
2 68638  88.9916 317.9203 0002011 102.8233 257.3143 13.51022791 13877
QIANFAN-112             
1 68639U 26075D   26198.24536872  .00000095  00000+0  12903-3 0  9996
2 68639  88.9915 317.9328 0002122 118.0314 242.1052 13.51013298 13869
